GLOBALSTAR M023         
1 25621U 99004A   25310.56654859 -.00000089  00000+0  82861-4 0  9993
2 25621  52.0124 339.8910 0010356  81.9442  80.7416 12.62507410233718
GLOBALSTAR M040         
1 25622U 99004B   25310.51462888 -.00000050  00000+0  29940-3 0  9994
2 25622  51.9937 344.4137 0000735   3.2567 144.6473 12.62022010233224
GLOBALSTAR M036         
1 25623U 99004C   25310.72771902  .00000022  00000+0  15226-2 0  9997
2 25623  51.9956 224.6102 0010692 326.9923  51.1678 11.86614670195906
GLOBALSTAR M038         
1 25624U 99004D   25310.59949980 -.00000060  00000+0  29055-3 0  9995
2 25624  51.9999  21.4364 0001497   4.0873 140.0841 12.32535103219933
GLOBALSTAR M022         
1 25649U 99012A   25310.87009988 -.00000070  00000+0  19904-3 0  9990
2 25649  52.0043 263.0223 0003091  86.3547 301.4545 12.02505831193547
GLOBALSTAR M041         
1 25650U 99012B   25310.54748450 -.00000080  00000+0  64326-4 0  9990
2 25650  51.9992 149.6905 0000589 199.8460 160.2354 11.96680185195324
GLOBALSTAR M046         
1 25651U 99012C   25310.73862516 -.00000123  00000+0 -38205-3 0  9997
2 25651  52.0039 208.3107 0001821 151.9640 242.0969 12.09414923200918
GLOBALSTAR M037         
1 25652U 99012D   25310.95009189 -.00000090  00000+0  77435-4 0  9992
2 25652  51.9983 109.2864 0002851 128.5561  46.4814 12.62454039229300
